{
  "type": "FeatureCollection",
  "features": [
    {
      "type": "Feature",
      "properties": {
        "norad_id": 30264,
        "name": "FENGYUN 1C DEB",
        "group": "fengyun-1c-debris",
        "lat": -42.18477975159041,
        "lon": -144.17387737709674,
        "alt_km": 832.7028712408128,
        "timestamp": "2025-12-14T22:38:41.033019+00:00",
        "meta_object_name": "FENGYUN 1C DEB",
        "meta_object_id": "1999-025XZ",
        "meta_epoch": "2025-12-14T03:04:34.554144",
        "meta_mean_motion": 14.07644721,
        "meta_eccentricity": 0.01072377,
        "meta_inclination": 98.9702,
        "meta_ra_of_asc_node": 43.2463,
        "meta_arg_of_pericenter": 283.4644,
        "meta_mean_anomaly": 130.7791,
        "meta_ephemeris_type": 0,
        "meta_classification_type": "U",
        "meta_norad_cat_id": 30264,
        "meta_element_set_no": 999,
        "meta_rev_at_epoch": 96577,
        "meta_bstar": 0.0013433268,
        "meta_mean_motion_dot": 2.347e-05,
        "meta_mean_motion_ddot": 0,
        "tle_line1": "1 30264U 99025XZ  25348.12817771  .00002347  00000+0  13433-2 0  9997",
        "tle_line2": "2 30264  98.9702  43.2463 0107237 283.4644 130.7791 14.07644721965773"
      },
      "geometry": {
        "type": "Point",
        "coordinates": [
          -144.17387737709674,
          -42.18477975159041
        ]
      }
    },
    {
      "type": "Feature",
      "properties": {
        "norad_id": 30265,
        "name": "FENGYUN 1C DEB",
        "group": "fengyun-1c-debris",
        "lat": -70.39292750651256,
        "lon": 123.49710294315022,
        "alt_km": 700.291550394686,
        "timestamp": "2025-12-14T22:38:41.033029+00:00",
        "meta_object_name": "FENGYUN 1C DEB",
        "meta_object_id": "1999-025YA",
        "meta_epoch": "2025-12-14T06:45:35.696160",
        "meta_mean_motion": 14.58666748,
        "meta_eccentricity": 0.0028536,
        "meta_inclination": 98.6621,
        "meta_ra_of_asc_node": 97.47,
        "meta_arg_of_pericenter": 7.2928,
        "meta_mean_anomaly": 47.1384,
        "meta_ephemeris_type": 0,
        "meta_classification_type": "U",
        "meta_norad_cat_id": 30265,
        "meta_element_set_no": 999,
        "meta_rev_at_epoch": 98424,
        "meta_bstar": 0.0024171705,
        "meta_mean_motion_dot": 0.00011295,
        "meta_mean_motion_ddot": 0,
        "tle_line1": "1 30265U 99025YA  25348.28166315  .00011295  00000+0  24172-2 0  9990",
        "tle_line2": "2 30265  98.6621  97.4700 0028536   7.2928  47.1384 14.58666748984248"
      },
      "geometry": {
        "type": "Point",
        "coordinates": [
          123.49710294315022,
          -70.39292750651256
        ]
      }
    },
    {
      "type": "Feature",
      "properties": {
        "norad_id": 30266,
        "name": "FENGYUN 1C DEB",
        "group": "fengyun-1c-debris",
        "lat": -43.912306277612934,
        "lon": 62.004099120874585,
        "alt_km": 862.8764970245693,
        "timestamp": "2025-12-14T22:38:41.033039+00:00",
        "meta_object_name": "FENGYUN 1C DEB",
        "meta_object_id": "1999-025YB",
        "meta_epoch": "2025-12-14T04:29:08.566944",
        "meta_mean_motion": 14.15092119,
        "meta_eccentricity": 0.00825512,
        "meta_inclination": 99.0431,
        "meta_ra_of_asc_node": 52.4179,
        "meta_arg_of_pericenter": 61.9265,
        "meta_mean_anomaly": 2.1011,
        "meta_ephemeris_type": 0,
        "meta_classification_type": "U",
        "meta_norad_cat_id": 30266,
        "meta_element_set_no": 999,
        "meta_rev_at_epoch": 96810,
        "meta_bstar": 0.0015136277,
        "meta_mean_motion_dot": 2.989e-05,
        "meta_mean_motion_ddot": 0,
        "tle_line1": "1 30266U 99025YB  25348.18690471  .00002989  00000+0  15136-2 0  9995",
        "tle_line2": "2 30266  99.0431  52.4179 0082551  61.9265   2.1011 14.15092119968105"
      },
      "geometry": {
        "type": "Point",
        "coordinates": [
          62.004099120874585,
          -43.912306277612934
        ]
      }
    },
    {
      "type": "Feature",
      "properties": {
        "norad_id": 30267,
        "name": "FENGYUN 1C DEB",
        "group": "fengyun-1c-debris",
        "lat": -60.25337838961267,
        "lon": 75.94090515836794,
        "alt_km": 799.8957948770922,
        "timestamp": "2025-12-14T22:38:41.033049+00:00",
        "meta_object_name": "FENGYUN 1C DEB",
        "meta_object_id": "1999-025YC",
        "meta_epoch": "2025-12-14T04:22:42.495456",
        "meta_mean_motion": 14.2361957,
        "meta_eccentricity": 0.00591946,
        "meta_inclination": 98.8503,
        "meta_ra_of_asc_node": 59.3538,
        "meta_arg_of_pericenter": 238.9939,
        "meta_mean_anomaly": 120.5417,
        "meta_ephemeris_type": 0,
        "meta_classification_type": "U",
        "meta_norad_cat_id": 30267,
        "meta_element_set_no": 999,
        "meta_rev_at_epoch": 97315,
        "meta_bstar": 0.0017461413,
        "meta_mean_motion_dot": 4.008e-05,
        "meta_mean_motion_ddot": 0,
        "tle_line1": "1 30267U 99025YC  25348.18243629  .00004008  00000+0  17461-2 0  9992",
        "tle_line2": "2 30267  98.8503  59.3538 0059194 238.9939 120.5417 14.23619570973150"
      },
      "geometry": {
        "type": "Point",
        "coordinates": [
          75.94090515836794,
          -60.25337838961267
        ]
      }
    },
    {
      "type": "Feature",
      "properties": {
        "norad_id": 30270,
        "name": "FENGYUN 1C DEB",
        "group": "fengyun-1c-debris",
        "lat": -9.305473162911778,
        "lon": -178.84016380361265,
        "alt_km": 854.6711369982686,
        "timestamp": "2025-12-14T22:38:41.033060+00:00",
        "meta_object_name": "FENGYUN 1C DEB",
        "meta_object_id": "1999-025YF",
        "meta_epoch": "2025-12-14T07:05:20.711040",
        "meta_mean_motion": 14.11271881,
        "meta_eccentricity": 0.00075069,
        "meta_inclination": 98.7023,
        "meta_ra_of_asc_node": 1.9697,
        "meta_arg_of_pericenter": 154.9318,
        "meta_mean_anomaly": 343.1684,
        "meta_ephemeris_type": 0,
        "meta_classification_type": "U",
        "meta_norad_cat_id": 30270,
        "meta_element_set_no": 999,
        "meta_rev_at_epoch": 97383,
        "meta_bstar": 0.00017791018,
        "meta_mean_motion_dot": 2.79e-06,
        "meta_mean_motion_ddot": 0,
        "tle_line1": "1 30270U 99025YF  25348.29537860  .00000279  00000+0  17791-3 0  9994",
        "tle_line2": "2 30270  98.7023   1.9697 0007506 154.9318 343.1684 14.11271881973837"
      },
      "geometry": {
        "type": "Point",
        "coordinates": [
          -178.84016380361265,
          -9.305473162911778
        ]
      }
    },
    {
      "type": "Feature",
      "properties": {
        "norad_id": 30272,
        "name": "FENGYUN 1C DEB",
        "group": "fengyun-1c-debris",
        "lat": 80.91084789494776,
        "lon": -21.773210221357008,
        "alt_km": 799.5573006482755,
        "timestamp": "2025-12-14T22:38:41.033070+00:00",
        "meta_object_name": "FENGYUN 1C DEB",
        "meta_object_id": "1999-025YH",
        "meta_epoch": "2025-12-14T03:33:37.595520",
        "meta_mean_motion": 14.14720215,
        "meta_eccentricity": 0.00508588,
        "meta_inclination": 98.9011,
        "meta_ra_of_asc_node": 55.8385,
        "meta_arg_of_pericenter": 99.9035,
        "meta_mean_anomaly": 260.7884,
        "meta_ephemeris_type": 0,
        "meta_classification_type": "U",
        "meta_norad_cat_id": 30272,
        "meta_element_set_no": 999,
        "meta_rev_at_epoch": 96876,
        "meta_bstar": 0.0013317216,
        "meta_mean_motion_dot": 2.553e-05,
        "meta_mean_motion_ddot": 0,
        "tle_line1": "1 30272U 99025YH  25348.14835180  .00002553  00000+0  13317-2 0  9992",
        "tle_line2": "2 30272  98.9011  55.8385 0050858  99.9035 260.7884 14.14720215968767"
      },
      "geometry": {
        "type": "Point",
        "coordinates": [
          -21.773210221357008,
          80.91084789494776
        ]
      }
    },
    {
      "type": "Feature",
      "properties": {
        "norad_id": 30273,
        "name": "FENGYUN 1C DEB",
        "group": "fengyun-1c-debris",
        "lat": -29.05112845986163,
        "lon": 8.401230915985957,
        "alt_km": 888.1230591633775,
        "timestamp": "2025-12-14T22:38:41.033081+00:00",
        "meta_object_name": "FENGYUN 1C DEB",
        "meta_object_id": "1999-025YJ",
        "meta_epoch": "2025-12-14T07:28:29.407872",
        "meta_mean_motion": 14.02663355,
        "meta_eccentricity": 0.00603937,
        "meta_inclination": 98.8407,
        "meta_ra_of_asc_node": 2.8283,
        "meta_arg_of_pericenter": 245.0489,
        "meta_mean_anomaly": 134.9542,
        "meta_ephemeris_type": 0,
        "meta_classification_type": "U",
        "meta_norad_cat_id": 30273,
        "meta_element_set_no": 999,
        "meta_rev_at_epoch": 96551,
        "meta_bstar": 0.00057171815,
        "meta_mean_motion_dot": 8.53e-06,
        "meta_mean_motion_ddot": 0,
        "tle_line1": "1 30273U 99025YJ  25348.31145148  .00000853  00000+0  57172-3 0  9999",
        "tle_line2": "2 30273  98.8407   2.8283 0060393 245.0489 134.9542 14.02663355965518"
      },
      "geometry": {
        "type": "Point",
        "coordinates": [
          8.401230915985957,
          -29.05112845986163
        ]
      }
    }
  ]
}